IXPE                    
1 49954U 21121A   23296.09689743  .00005648  00000+0  42934-3 0  9993
2 49954   0.2315 356.1440 0009990 352.1570  11.6763 14.95202869102178
